STARLINK-5085           
1 55392U 23014B   26068.37099639  .00001285  00000+0  11549-3 0  9990
2 55392  70.0002  45.1506 0002963 265.8444  94.2376 14.98332586172504
KORSAT-2                
1 62377U 24247A   26068.41070335  .00005163  00000+0  43498-3 0  9994
2 62377  45.4085 225.0391 0009773  57.7708 302.4117 14.99271316 66592
