[{"OBJECT_NAME":"STARLINK-5085","OBJECT_ID":"2023-014B","EPOCH":"2026-03-09T08:54:14.088096","MEAN_MOTION":14.98332586,"ECCENTRICITY":0.00029635,"INCLINATION":70.0002,"RA_OF_ASC_NODE":45.1506,"ARG_OF_PERICENTER":265.8444,"MEAN_ANOMALY":94.2376,"EPHEMERIS_TYPE":0,"CLASSIFICATION_TYPE":"U","NORAD_CAT_ID":55392,"ELEMENT_SET_NO":999,"REV_AT_EPOCH":17250,"BSTAR":0.00011549032,"MEAN_MOTION_DOT":1.285e-5,"MEAN_MOTION_DDOT":0},{"OBJECT_NAME":"KORSAT-2","OBJECT_ID":"2024-247A","EPOCH":"2026-03-09T09:51:24.769440","MEAN_MOTION":14.99271316,"ECCENTRICITY":0.00097734,"INCLINATION":45.4085,"RA_OF_ASC_NODE":225.0391,"ARG_OF_PERICENTER":57.7708,"MEAN_ANOMALY":302.4117,"EPHEMERIS_TYPE":0,"CLASSIFICATION_TYPE":"U","NORAD_CAT_ID":62377,"ELEMENT_SET_NO":999,"REV_AT_EPOCH":6659,"BSTAR":0.00043497982,"MEAN_MOTION_DOT":5.163e-5,"MEAN_MOTION_DDOT":0}]
